[{"OBJECT_NAME":"HAWK-11A","OBJECT_ID":"2024-247F","EPOCH":"2026-03-09T12:17:43.893312","MEAN_MOTION":15.28849427,"ECCENTRICITY":0.00054663,"INCLINATION":44.9941,"RA_OF_ASC_NODE":114.3328,"ARG_OF_PERICENTER":327.3713,"MEAN_ANOMALY":32.6832,"EPHEMERIS_TYPE":0,"CLASSIFICATION_TYPE":"U","NORAD_CAT_ID":62382,"ELEMENT_SET_NO":999,"REV_AT_EPOCH":6774,"BSTAR":0.00034106017,"MEAN_MOTION_DOT":9.457e-5,"MEAN_MOTION_DDOT":0},{"OBJECT_NAME":"STARLINK-34365","OBJECT_ID":"2025-139H","EPOCH":"2026-03-09T10:47:30.577344","MEAN_MOTION":15.30218259,"ECCENTRICITY":0.00010975,"INCLINATION":53.1567,"RA_OF_ASC_NODE":128.4161,"ARG_OF_PERICENTER":93.2285,"MEAN_ANOMALY":266.8841,"EPHEMERIS_TYPE":0,"CLASSIFICATION_TYPE":"U","NORAD_CAT_ID":64671,"ELEMENT_SET_NO":999,"REV_AT_EPOCH":4030,"BSTAR":0.00089298382,"MEAN_MOTION_DOT":0.00026197,"MEAN_MOTION_DDOT":0}]
